[{"OBJECT_NAME":"ONEWEB-0551","OBJECT_ID":"2023-043H","EPOCH":"2026-03-09T19:47:05.224992","MEAN_MOTION":13.15548468,"ECCENTRICITY":0.00018983,"INCLINATION":87.8937,"RA_OF_ASC_NODE":279.0686,"ARG_OF_PERICENTER":92.7511,"MEAN_ANOMALY":267.3837,"EPHEMERIS_TYPE":0,"CLASSIFICATION_TYPE":"U","NORAD_CAT_ID":56053,"ELEMENT_SET_NO":999,"REV_AT_EPOCH":14333,"BSTAR":-1.6847715e-5,"MEAN_MOTION_DOT":6.0e-8,"MEAN_MOTION_DDOT":0},{"OBJECT_NAME":"OPS 4682 DEB","OBJECT_ID":"1965-027C","EPOCH":"2026-03-09T22:01:35.411808","MEAN_MOTION":13.22363751,"ECCENTRICITY":0.00362446,"INCLINATION":90.2606,"RA_OF_ASC_NODE":25.0203,"ARG_OF_PERICENTER":89.1257,"MEAN_ANOMALY":271.4031,"EPHEMERIS_TYPE":0,"CLASSIFICATION_TYPE":"U","NORAD_CAT_ID":1316,"ELEMENT_SET_NO":999,"REV_AT_EPOCH":90588,"BSTAR":0.0024977229,"MEAN_MOTION_DOT":1.052e-5,"MEAN_MOTION_DDOT":0}]
